EUTELSAT QUANTUM        
1 49056U 21069B   25353.63349442  .00000150  00000+0  00000+0 0  9999
2 49056   0.0176  28.1850 0003328 250.9076  85.1489  1.00271741 16127
EUTELSAT KONNECT VHTS   
1 53765U 22110A   25352.92753118  .00000042  00000+0  00000+0 0  9999
2 53765   0.0647 100.6033 0002290 142.9466 180.8811  1.00269719  5011
EUTELSAT HOTBIRD 13F    
1 54048U 22134A   25353.76917889  .00000112  00000+0  00000+0 0  9998
2 54048   0.0491 294.8043 0002356  69.7798  13.9259  1.00272066 11576
EUTELSAT HOTBIRD 13G    
1 54225U 22146A   25353.76917889  .00000112  00000+0  00000+0 0  9998
2 54225   0.0515 225.8744 0001789 308.1908 204.4423  1.00272410  5660
EUTELSAT 10B            
1 54259U 22157A   25353.12659766  .00000090  00000+0  00000+0 0  9999
2 54259   0.0621  98.3483 0002370  10.4873  34.7012  1.00249724 11228
EUTELSAT 36D            
1 59346U 24059A   25353.55974064  .00000000  00000+0  00000+0 0  9993
2 59346   0.0261  21.2200 0000461 346.6706 317.8615  1.00272156  6346
